QIANFAN-25              
1 61558U 24185G   25287.29158593  .00000708  00000+0  42464-3 0  9998
2 61558  88.9756  84.9124 0010250 125.3333 234.8809 14.05822666 61153
QIANFAN-26              
1 61559U 24185H   25287.34176653  .00000378  00000+0  36499-3 0  9996
2 61559  88.9755  86.1576 0005719 172.2544 187.8712 13.77761566 60492
QIANFAN-27              
1 61560U 24185J   25287.29666979  .00000862  00000+0  34687-3 0  9992
2 61560  88.9754  83.9085 0009903 118.1056 242.1140 14.27216935 61682
QIANFAN-28              
1 61561U 24185K   25287.30650595  .00001281  00000+0  51210-3 0  9999
2 61561  88.9770  83.9059 0009018 117.5402 242.6709 14.27844474 61699
QIANFAN-29              
1 61562U 24185L   25287.34008547  .00000256  00000+0  37862-3 0  9996
2 61562  88.9731  87.4451 0009045 214.7872 145.2688 13.50980325 59774
QIANFAN-30              
1 61563U 24185M   25287.26999216  .00000250  00000+0  37495-3 0  9996
2 61563  88.9751  86.9548 0006979 194.8430 165.2517 13.49957723 60048
QIANFAN-31              
1 61564U 24185N   25287.29268671  .00000291  00000+0  38654-3 0  9997
2 61564  88.9737  86.8486 0006713 190.2678 169.8341 13.57930888 60095
QIANFAN-32              
1 61565U 24185P   25287.34542388  .00000243  00000+0  35925-3 0  9999
2 61565  88.9794  87.0633 0008036 226.5792 133.4691 13.50709256 60020
